satname,norad_id,inclination_deg,eccentricity,mean_motion_rev_per_day,perigee_km,apogee_km,l1,l2
STARLINK-1008,44714,53.0555,0.0001374,15.06398619,546.2642470341943,548.1673339810259,1 44714U 19074B   25356.80887992  .00001158  00000+0  96595-4 0  9995,2 44714  53.0555 171.7497 0001374  97.1403 262.9742 15.06398619337160
STARLINK-1012,44718,53.0528,0.0001553,15.06407173,546.1140705967009,548.2650770305272,1 44718U 19074F   25355.79154413  .00000970  00000+0  83997-4 0  9994,2 44718  53.0528 176.3133 0001553  91.4789 268.6378 15.06407173337002
STARLINK-1017,44723,53.0469,0.00065,15.18146566,506.96413151168144,515.9205846772047,1 44723U 19074L   25356.79843323  .00033736  00000+0  16391-2 0  9994,2 44723  53.0469 164.5812 0006500 119.1127 241.0519 15.18146566337265
STARLINK-1019,44724,53.0503,0.0002819,15.5828456,390.71291667332935,394.53027036835647,1 44724U 19074M   25356.91670139  .00180192  00000+0  22904-2 0  9998,2 44724  53.0503 156.0743 0002819 234.4201 302.8121 15.58284560  5872
STARLINK-1020,44725,53.0541,0.0001313,15.06395187,546.3170089268651,548.1356093318427,1 44725U 19074N   25356.25783268 -.00000588  00000+0 -20572-4 0  9997,2 44725  53.0541 194.2240 0001313  90.5981 269.5158 15.06395187336793
STARLINK-1031,44736,53.0466,0.0002731,15.62112955,379.70857225443706,383.400715830413,1 44736U 19074Z   25356.91670139  .00160180  00000+0  17642-2 0  9999,2 44736  53.0466 142.6635 0002731 114.1280 146.3310 15.62112955  5973
STARLINK-1036,44741,53.0538,0.0001459,15.06391256,546.2279449039306,548.2487694331521,1 44741U 19074AE  25356.81810308  .00001031  00000+0  88125-4 0  9993,2 44741  53.0538 191.7036 0001459  91.4608 268.6548 15.06391256336885
STARLINK-1039,44744,53.0485,0.0003679,15.15574487,516.6974744405525,521.7725607711072,1 44744U 19074AH  25356.80231828  .00012661  00000+0  67411-3 0  9994,2 44744  53.0485 206.7669 0003679  75.1918 284.9483 15.15574487336672
STARLINK-1042,44747,53.0458,0.0001348,15.45738513,428.2913316319218,430.1265921032418,1 44747U 19074AL  25356.48837291  .00022299  00000+0  46129-3 0  9998,2 44747  53.0458 104.0327 0001348 276.6116  83.4736 15.45738513338114
STARLINK-1043,44748,53.0527,0.0003203,15.45414368,427.980108053147,432.3415036275692,1 44748U 19074AM  25356.80387176  .00081279  00000+0  16639-2 0  9992,2 44748  53.0527 203.4644 0003203 127.9862 232.1433 15.45414368336727
STARLINK-1046,44751,53.0553,0.000158,15.06397193,546.1259545709154,548.3143674337934,1 44751U 19074AQ  25356.80519779  .00000218  00000+0  33537-4 0  9994,2 44751  53.0553 211.7642 0001580  84.4661 275.6508 15.06397193336605
STARLINK-1047,44752,53.0693,0.0001914,15.30563982,472.8169765371849,475.4400237706441,1 44752U 19074AR  25355.84332987  .00009613  00000+0  33255-3 0  9996,2 44752  53.0693 149.1221 0001914  11.3240 348.7802 15.30563982337418
STARLINK-1048,44753,53.0539,0.0001227,15.06401969,546.355783715836,548.0552627710395,1 44753U 19074AS  25356.49926030  .00000852  00000+0  76110-4 0  9991,2 44753  53.0539 173.1365 0001227  92.0175 268.0954 15.06401969337112
STARLINK-1053,44758,53.0387,0.0001234,15.68615233,362.0295372156297,363.6932156149296,1 44758U 19074AX  25356.54020141  .00079744  00000+0  68694-3 0  9993,2 44758  53.0387 109.6188 0001234 244.9289 115.1598 15.68615233338023
STARLINK-1060,44765,53.0459,0.0004625,15.79509948,328.7247875652547,334.9315053257169,1 44765U 19074BE  25356.91670139  .00209618  00000+0  11062-2 0  9991,2 44765  53.0459 151.6589 0004625 191.9701  59.0246 15.79509948  6025
STARLINK-1063,44768,53.0526,0.0001609,15.0640111,546.0938679146429,548.3224439858286,1 44768U 19074BH  25356.86049737  .00003010  00000+0  22089-3 0  9992,2 44768  53.0526 211.5195 0001609  85.7385 274.3788 15.06401110336626
STARLINK-1067,44771,53.0542,0.0001368,15.20279683,504.0546869230493,505.9379121938082,1 44771U 19074BL  25356.91670139  .01551431  00000+0  64154-1 0  9991,2 44771  53.0542 210.8499 0001368 120.9936  99.5367 15.20279683  5787
STARLINK-1068,44772,53.0555,0.0001232,15.35957439,457.23589350370275,458.92033690808967,1 44772U 19074BM  25356.91670139  .01816582  00000+0  45930-1 0  9994,2 44772  53.0555 189.4953 0001232  63.6130 184.1743 15.35957439  5784
STARLINK-1112,44925,53.047,0.0009793,15.67914356,358.2666727125161,371.4735264177252,1 44925U 20001M   25356.91670139  .00117565  00000+0  10327-2 0  9993,2 44925  53.0470 268.9795 0009793  79.4797 217.7569 15.67914356  5933
STARLINK-1114,44927,53.0559,0.000152,15.06403964,546.1467577416897,548.2520600099879,1 44927U 20001P   25356.21544383  .00001275  00000+0  10445-3 0  9991,2 44927  53.0559 334.4150 0001520  85.2844 274.8319 15.06403964328177
STARLINK-1123,44930,53.0567,0.0001527,15.06398563,546.1584607424948,548.2734635371316,1 44930U 20001S   25356.16384091  .00000818  00000+0  73822-4 0  9998,2 44930  53.0567 334.6452 0001527  90.9174 269.1990 15.06398563328162
STARLINK-1144,44933,53.0377,0.0002771,15.77879893,334.58796668143987,338.30919000895847,1 44933U 20001V   25356.91670139  .00117146  00000+0  67439-3 0  9994,2 44933  53.0377 242.7357 0002771 132.9804 320.8225 15.77879893  5803
STARLINK-1094,44941,53.0556,0.0001433,15.06397047,546.2282047274584,548.2130122180461,1 44941U 20001AD  25356.17674241  .00000958  00000+0  83209-4 0  9995,2 44941  53.0556 314.5898 0001433  90.0482 270.0672 15.06397047328447
STARLINK-1122,44949,53.0575,0.0001572,15.06390379,546.1523756458537,548.3297145032257,1 44949U 20001AM  25356.26522302  .00005435  00000+0  38357-3 0  9991,2 44949  53.0575 314.1893 0001572 101.9667 258.1498 15.06390379328453
STARLINK-1080,44961,53.055,0.0001452,15.16046351,516.8024645218393,518.8050457171248,1 44961U 20001AZ  25356.91670139  .01294492  00000+0  61405-1 0  9991,2 44961  53.0550 291.0501 0001452  62.1776 354.4459 15.16046351  5778
STARLINK-1090,44968,53.0555,0.0001478,15.0641224,546.150483382814,548.1976053275248,1 44968U 20001BG  25356.20069477  .00006079  00000+0  42651-3 0  9992,2 44968  53.0555 294.4805 0001478  93.0683 267.0475 15.06412240328736
STARLINK-1132,45044,53.0543,0.0001405,15.06407614,546.2152140294629,548.1612304169084,1 45044U 20006A   25355.96113053  .00005468  00000+0  38562-3 0  9992,2 45044  53.0543 255.5594 0001405  82.3139 277.8009 15.06407614325029
STARLINK-1131,45047,53.0555,0.0001552,15.0640414,546.1240573366649,548.2736815905464,1 45047U 20006D   25356.06991798  .00002138  00000+0  16239-3 0  9995,2 45047  53.0555 275.6093 0001552  90.5649 269.5518 15.06404140324755
STARLINK-1134,45048,53.036,0.0005278,15.33276256,462.4329245358931,469.65764335482527,1 45048U 20006E   25356.84987206  .00044490  00000+0  13672-2 0  9995,2 45048  53.0360 240.8976 0005278  32.0956 328.0365 15.33276256325314
STARLINK-1156,45054,53.0554,0.0001583,15.06395761,546.1282651598685,548.3208346265646,1 45054U 20006L   25355.50959197  .00002006  00000+0  15357-3 0  9992,2 45054  53.0554 277.5853 0001583  93.8461 266.2710 15.06395761324676
STARLINK-1159,45057,53.0519,0.0007282,15.57869327,388.89331194953684,398.7559969030435,1 45057U 20006P   25356.83262862  .00096892  00000+0  12660-2 0  9997,2 45057  53.0519 254.4648 0007282  97.9485 262.2353 15.57869327325129
STARLINK-1166,45060,53.0549,0.0001629,15.06406236,546.0643093956769,548.3205817290409,1 45060U 20006S   25356.46424024  .00001283  00000+0  10498-3 0  9998,2 45060  53.0549 273.2942 0001629  71.0225 289.0941 15.06406236324822
STARLINK-1169,45061,53.0571,0.0001734,15.06415571,545.9629883121133,548.3646826418562,1 45061U 20006T   25356.07352939  .00002784  00000+0  20563-3 0  9992,2 45061  53.0571 275.0555 0001734  90.8925 269.2262 15.06415571324762
STARLINK-1171,45062,53.0543,0.0013612,15.410181,433.8182111768674,452.38835572453354,1 45062U 20006U   25355.46853703  .00056852  00000+0  13526-2 0  9995,2 45062  53.0543 264.4849 0013612  86.8590 273.3971 15.41018100324861
STARLINK-1133,45064,53.0552,0.0001776,15.06460982,545.7947544847839,548.2545719075506,1 45064U 20006W   25355.93897877  .00024453  00000+0  16521-2 0  9999,2 45064  53.0552 255.6557 0001776 115.0988 245.0186 15.06460982325028
STARLINK-1167,45071,53.0543,0.0001506,15.06398495,546.1732123628726,548.2591287378427,1 45071U 20006AD  25356.03115564  .00001141  00000+0  95508-4 0  9998,2 45071  53.0543 255.2394 0001506  81.2314 278.8845 15.06398495325035
STARLINK-1168,45072,53.0536,0.0001506,15.06405989,546.1502478481561,548.236157305173,1 45072U 20006AE  25356.16752790  .00003159  00000+0  23085-3 0  9992,2 45072  53.0536 254.6276 0001506  88.2106 271.9056 15.06405989325053
STARLINK-1172,45074,53.0558,0.0001492,15.06385767,546.2219118635048,548.2884488901291,1 45074U 20006AG  25356.44399015 -.00001360  00000+0 -72417-4 0  9990,2 45074  53.0558 253.3895 0001492  92.8109 267.3051 15.06385767325099
STARLINK-1153,45080,53.054,0.0001267,15.06407627,546.3107436797864,548.0656210810021,1 45080U 20006AN  25356.42185398  .00004323  00000+0  30887-3 0  9996,2 45080  53.0540 253.4874 0001267  94.3666 265.7468 15.06407627325094
STARLINK-1151,45081,53.0666,0.0001318,15.3870675,449.0325980305606,450.83247716067035,1 45081U 20006AP  25356.91670139  .01112564  00000+0  26182-1 0  9992,2 45081  53.0666 249.2072 0001318  88.7106 176.1320 15.38706750  5833
STARLINK-1185,45087,53.0542,0.0002032,15.06395529,545.8180273318039,548.6324945546512,1 45087U 20006AV  25356.84758986  .00001163  00000+0  96985-4 0  9999,2 45087  53.0542 231.5769 0002032  89.6647 270.4575 15.06395529325448
STARLINK-1183,45088,53.0529,0.0001654,15.0638932,546.0988327279674,548.3897488589619,1 45088U 20006AW  25356.80335811  .00001050  00000+0  89421-4 0  9996,2 45088  53.0529 231.7745 0001654 111.1661 248.9505 15.06389320325430
STARLINK-1142,45093,53.017,0.0008759,16.08199095,245.98110579497188,257.59540886075956,1 45093U 20006BB  25356.86036109  .01625288  18554-2  19316-2 0  9992,2 45093  53.0170 137.9958 0008759 287.3083  72.6991 16.08199095326756
